VIGORIDE-3              
1 52760U 22057AE  26068.92149362  .00008532  00000+0  33326-3 0  9991
2 52760  97.6431 206.4459 0009778 111.2279 249.0004 15.26101220210019
STARLINK-31852          
1 59841U 24097G   26068.54289265 -.00000631  00000+0 -13424-4 0  9991
2 59841  43.0008 267.4595 0001369 258.3775 101.6923 15.27576223101989
